[{"OBJECT_NAME":"DONGPO 10","OBJECT_ID":"2022-167H","EPOCH":"2026-03-09T22:44:56.137344","MEAN_MOTION":15.322785,"ECCENTRICITY":0.00061655,"INCLINATION":97.685,"RA_OF_ASC_NODE":235.0962,"ARG_OF_PERICENTER":106.9526,"MEAN_ANOMALY":253.2392,"EPHEMERIS_TYPE":0,"CLASSIFICATION_TYPE":"U","NORAD_CAT_ID":54689,"ELEMENT_SET_NO":999,"REV_AT_EPOCH":18015,"BSTAR":0.00049390523,"MEAN_MOTION_DOT":0.00015333,"MEAN_MOTION_DDOT":0},{"OBJECT_NAME":"STARLINK-35214","OBJECT_ID":"2025-216P","EPOCH":"2026-03-09T22:50:26.200032","MEAN_MOTION":15.30211968,"ECCENTRICITY":8.667e-5,"INCLINATION":53.1576,"RA_OF_ASC_NODE":331.6751,"ARG_OF_PERICENTER":114.7617,"MEAN_ANOMALY":245.3474,"EPHEMERIS_TYPE":0,"CLASSIFICATION_TYPE":"U","NORAD_CAT_ID":65747,"ELEMENT_SET_NO":999,"REV_AT_EPOCH":2658,"BSTAR":0.0012882441,"MEAN_MOTION_DOT":0.00038004,"MEAN_MOTION_DDOT":0}]
